HYPERFIELD-1A           
1 60562U 24149CY  26068.76488211  .00008569  00000+0  30052-3 0  9998
2 60562  97.3842 149.5066 0003865 313.7844  46.3076 15.29681349 86836
STARLINK-33795          
1 63457U 25069AA  26068.50561699  .00031012  00000+0  10547-2 0  9995
2 63457  53.1576 143.5282 0001658  67.7727 292.3450 15.30204388 53260
